format  = 'OEF1.1'       ! file format
rectype = 'ML'           ! record type (1L/ML)
refsys  = ECLM J2000     ! default reference system
END_OF_HEADER
2008LN16
! Equinoctial elements: a, e*sin(LP), e*cos(LP), tan(i/2)*sin(LN), tan(i/2)*cos(LN), mean long.
 EQU   2.14047615008274E+00  -0.376308248890057   0.190873305697496    0.040573874035138    0.054959705898179   9.6783383674999
 MJD     54894.412390207 TDT
 MAG  19.940  0.150
! RMS    4.87660E-07   9.12026E-07   1.67360E-06   1.70642E-07   1.71122E-07   1.36737E-04
! EIG   2.93793E-08   7.83508E-08   9.41539E-08   1.57759E-07   2.28456E-07   3.08730E-06
! WEA   0.15233   0.29010   0.54165  -0.01868   0.04232   0.77273
 COV   2.378121766729039E-13  4.365589929338499E-13  7.840793413770464E-13
 COV  -2.532593991238375E-14  6.857183531647189E-14  6.383997594767840E-11
 COV   8.317909965714274E-13  1.488261302998530E-12 -4.518737174368666E-14
 COV   1.286860968040159E-13  1.219579211765756E-10  2.800927499636198E-12
 COV  -9.942786901905536E-14  2.147197581939784E-13  2.286294653997108E-10
 COV   2.911869917348709E-14 -6.995398688677252E-15 -7.889349828602515E-12
 COV   2.928286648433608E-14  1.764022410013682E-11  1.869703421480216E-08
 NOR   3.059428052195240E+14 -1.847178287377374E+14 -3.205984255890931E+14
 NOR  -1.045548259794787E+13 -2.747026061592377E+13  4.102081722337605E+12
 NOR   1.617088758387025E+14  2.074794815708411E+14 -3.385482334555684E+12
 NOR  -3.606509587892641E+13 -2.928578500431075E+12  5.476172205740620E+14
 NOR   3.181847095135427E+13  2.957938403249758E+13 -6.969499081078461E+12
 NOR   4.369965583078307E+13  1.148292236053741E+13 -3.236917277983051E+11
 NOR   1.380110756714548E+14 -1.580222477224359E+11  9.038616539963231E+10
